{
  "type": "FeatureCollection",
  "features": [
    {
      "type": "Feature",
      "properties": {
        "norad_id": 37836,
        "name": "EUTELSAT 16A",
        "group": "eutelsat",
        "lat": -0.0020721486677754137,
        "lon": 167.81026499794064,
        "alt_km": 35792.8024220411,
        "timestamp": "2025-12-22T04:03:38.833173+00:00",
        "meta_object_name": "EUTELSAT 16A",
        "meta_object_id": "2011-057A",
        "meta_epoch": "2025-12-21T18:24:33.736032",
        "meta_mean_motion": 1.00269805,
        "meta_eccentricity": 0.000586,
        "meta_inclination": 0.0585,
        "meta_ra_of_asc_node": 340.9018,
        "meta_arg_of_pericenter": 291.407,
        "meta_mean_anomaly": 110.4098,
        "meta_ephemeris_type": 0,
        "meta_classification_type": "U",
        "meta_norad_cat_id": 37836,
        "meta_element_set_no": 999,
        "meta_rev_at_epoch": 554,
        "meta_bstar": 0,
        "meta_mean_motion_dot": 1.26e-06,
        "meta_mean_motion_ddot": 0,
        "tle_line1": "1 37836U 11057A   25355.76705713  .00000126  00000+0  00000+0 0  9994",
        "tle_line2": "2 37836   0.0585 340.9018 0005860 291.4070 110.4098  1.00269805  5542"
      },
      "geometry": {
        "type": "Point",
        "coordinates": [
          167.81026499794064,
          -0.0020721486677754137
        ]
      }
    },
    {
      "type": "Feature",
      "properties": {
        "norad_id": 38992,
        "name": "EUTELSAT 21B",
        "group": "eutelsat",
        "lat": -0.009821022217031945,
        "lon": 173.4338275254555,
        "alt_km": 35789.45171534687,
        "timestamp": "2025-12-22T04:03:38.833185+00:00",
        "meta_object_name": "EUTELSAT 21B",
        "meta_object_id": "2012-062B",
        "meta_epoch": "2025-12-21T18:26:11.080320",
        "meta_mean_motion": 1.00269626,
        "meta_eccentricity": 0.0003264,
        "meta_inclination": 0.0678,
        "meta_ra_of_asc_node": 342.6719,
        "meta_arg_of_pericenter": 292.5246,
        "meta_mean_anomaly": 113.5241,
        "meta_ephemeris_type": 0,
        "meta_classification_type": "U",
        "meta_norad_cat_id": 38992,
        "meta_element_set_no": 999,
        "meta_rev_at_epoch": 4804,
        "meta_bstar": 0,
        "meta_mean_motion_dot": 1.52e-06,
        "meta_mean_motion_ddot": 0,
        "tle_line1": "1 38992U 12062B   25355.76818380  .00000152  00000+0  00000+0 0  9999",
        "tle_line2": "2 38992   0.0678 342.6719 0003264 292.5246 113.5241  1.00269626 48046"
      },
      "geometry": {
        "type": "Point",
        "coordinates": [
          173.4338275254555,
          -0.009821022217031945
        ]
      }
    },
    {
      "type": "Feature",
      "properties": {
        "norad_id": 39020,
        "name": "EUTELSAT 70B",
        "group": "eutelsat",
        "lat": -0.05092566821702447,
        "lon": -137.65541531563977,
        "alt_km": 35771.036294414065,
        "timestamp": "2025-12-22T04:03:38.833197+00:00",
        "meta_object_name": "EUTELSAT 70B",
        "meta_object_id": "2012-069A",
        "meta_epoch": "2025-12-21T19:45:53.881920",
        "meta_mean_motion": 1.0027158,
        "meta_eccentricity": 0.0004242,
        "meta_inclination": 0.0616,
        "meta_ra_of_asc_node": 7.8794,
        "meta_arg_of_pericenter": 247.0824,
        "meta_mean_anomaly": 202.6391,
        "meta_ephemeris_type": 0,
        "meta_classification_type": "U",
        "meta_norad_cat_id": 39020,
        "meta_element_set_no": 999,
        "meta_rev_at_epoch": 4773,
        "meta_bstar": 0,
        "meta_mean_motion_dot": -2.1e-07,
        "meta_mean_motion_ddot": 0,
        "tle_line1": "1 39020U 12069A   25355.82354030 -.00000021  00000+0  00000+0 0  9999",
        "tle_line2": "2 39020   0.0616   7.8794 0004242 247.0824 202.6391  1.00271580 47731"
      },
      "geometry": {
        "type": "Point",
        "coordinates": [
          -137.65541531563977,
          -0.05092566821702447
        ]
      }
    },
    {
      "type": "Feature",
      "properties": {
        "norad_id": 39122,
        "name": "EUTELSAT 117 WEST A",
        "group": "eutelsat",
        "lat": 0.03716454743957187,
        "lon": 35.12070456556436,
        "alt_km": 35792.23065819649,
        "timestamp": "2025-12-22T04:03:38.833210+00:00",
        "meta_object_name": "EUTELSAT 117 WEST A",
        "meta_object_id": "2013-012A",
        "meta_epoch": "2025-12-21T16:04:01.267104",
        "meta_mean_motion": 1.00270573,
        "meta_eccentricity": 0.0002607,
        "meta_inclination": 0.0274,
        "meta_ra_of_asc_node": 305.9295,
        "meta_arg_of_pericenter": 327.327,
        "meta_mean_anomaly": 301.4494,
        "meta_ephemeris_type": 0,
        "meta_classification_type": "U",
        "meta_norad_cat_id": 39122,
        "meta_element_set_no": 999,
        "meta_rev_at_epoch": 4665,
        "meta_bstar": 0,
        "meta_mean_motion_dot": 1e-07,
        "meta_mean_motion_ddot": 0,
        "tle_line1": "1 39122U 13012A   25355.66945911  .00000010  00000+0  00000+0 0  9994",
        "tle_line2": "2 39122   0.0274 305.9295 0002607 327.3270 301.4494  1.00270573 46655"
      },
      "geometry": {
        "type": "Point",
        "coordinates": [
          35.12070456556436,
          0.03716454743957187
        ]
      }
    },
    {
      "type": "Feature",
      "properties": {
        "norad_id": 39163,
        "name": "EUTELSAT 7B",
        "group": "eutelsat",
        "lat": 0.03676910106550354,
        "lon": 158.8612358452992,
        "alt_km": 35803.98543280451,
        "timestamp": "2025-12-22T04:03:38.833222+00:00",
        "meta_object_name": "EUTELSAT 7B",
        "meta_object_id": "2013-022A",
        "meta_epoch": "2025-12-21T18:22:03.973728",
        "meta_mean_motion": 1.0027108,
        "meta_eccentricity": 0.00044,
        "meta_inclination": 0.0652,
        "meta_ra_of_asc_node": 2.192,
        "meta_arg_of_pericenter": 320.1246,
        "meta_mean_anomaly": 50.7744,
        "meta_ephemeris_type": 0,
        "meta_classification_type": "U",
        "meta_norad_cat_id": 39163,
        "meta_element_set_no": 999,
        "meta_rev_at_epoch": 4616,
        "meta_bstar": 0,
        "meta_mean_motion_dot": 7e-07,
        "meta_mean_motion_ddot": 0,
        "tle_line1": "1 39163U 13022A   25355.76532377  .00000070  00000+0  00000+0 0  9995",
        "tle_line2": "2 39163   0.0652   2.1920 0004400 320.1246  50.7744  1.00271080 46160"
      },
      "geometry": {
        "type": "Point",
        "coordinates": [
          158.8612358452992,
          0.03676910106550354
        ]
      }
    },
    {
      "type": "Feature",
      "properties": {
        "norad_id": 39612,
        "name": "EXPRESS-AT1",
        "group": "eutelsat",
        "lat": -0.029820158914655608,
        "lon": -152.10597671900604,
        "alt_km": 35784.313632652826,
        "timestamp": "2025-12-22T04:03:38.833234+00:00",
        "meta_object_name": "EXPRESS-AT1",
        "meta_object_id": "2014-010A",
        "meta_epoch": "2025-12-21T20:18:45.300960",
        "meta_mean_motion": 1.00272781,
        "meta_eccentricity": 8.33e-05,
        "meta_inclination": 0.0213,
        "meta_ra_of_asc_node": 309.5573,
        "meta_arg_of_pericenter": 193.3107,
        "meta_mean_anomaly": 308.4826,
        "meta_ephemeris_type": 0,
        "meta_classification_type": "U",
        "meta_norad_cat_id": 39612,
        "meta_element_set_no": 999,
        "meta_rev_at_epoch": 4304,
        "meta_bstar": 0,
        "meta_mean_motion_dot": 1.01e-06,
        "meta_mean_motion_ddot": 0,
        "tle_line1": "1 39612U 14010A   25355.84635765  .00000101  00000+0  00000+0 0  9991",
        "tle_line2": "2 39612   0.0213 309.5573 0000833 193.3107 308.4826  1.00272781 43049"
      },
      "geometry": {
        "type": "Point",
        "coordinates": [
          -152.10597671900604,
          -0.029820158914655608
        ]
      }
    },
    {
      "type": "Feature",
      "properties": {
        "norad_id": 39613,
        "name": "EXPRESS-AT2",
        "group": "eutelsat",
        "lat": -0.02989909492739597,
        "lon": -68.26726673509143,
        "alt_km": 35781.95255790899,
        "timestamp": "2025-12-22T04:03:38.833261+00:00",
        "meta_object_name": "EXPRESS-AT2",
        "meta_object_id": "2014-010B",
        "meta_epoch": "2025-12-21T03:35:19.372992",
        "meta_mean_motion": 1.00270951,
        "meta_eccentricity": 0.00010602,
        "meta_inclination": 0.019,
        "meta_ra_of_asc_node": 327.4725,
        "meta_arg_of_pericenter": 327.2965,
        "meta_mean_anomaly": 348.8895,
        "meta_ephemeris_type": 0,
        "meta_classification_type": "U",
        "meta_norad_cat_id": 39613,
        "meta_element_set_no": 999,
        "meta_rev_at_epoch": 4271,
        "meta_bstar": 0,
        "meta_mean_motion_dot": -2.58e-06,
        "meta_mean_motion_ddot": 0,
        "tle_line1": "1 39613U 14010B   25355.14952978 -.00000258  00000+0  00000+0 0  9997",
        "tle_line2": "2 39613   0.0190 327.4725 0001060 327.2965 348.8895  1.00270951 42719"
      },
      "geometry": {
        "type": "Point",
        "coordinates": [
          -68.26726673509143,
          -0.02989909492739597
        ]
      }
    }
  ]
}